IRIDIUM 33 DEB          
1 35488U 97051QJ  26161.42891342  .00008538  00000+0  94271-3 0  9998
2 35488  86.3253 217.7425 0027625 121.1357 239.2583 14.87047304909331
IRIDIUM 33 DEB          
1 35616U 97051QN  26161.54502012  .00010120  00000+0  11278-2 0  9992
2 35616  86.3515 263.2955 0006592 254.4910 105.5587 14.86959673902426
IRIDIUM 33 DEB          
1 35618U 97051QQ  26162.02448463  .00001582  00000+0  37579-3 0  9992
2 35618  86.3382 274.6011 0030216 129.5621 230.8262 14.53031404680118
IRIDIUM 33 DEB          
1 35620U 97051QS  26163.21467094  .00009350  00000+0  25462-2 0  9996
2 35620  86.3892 140.6906 0136016  23.3973 337.3337 14.41968206625782
IRIDIUM 33 DEB          
1 35622U 97051QU  26161.29035037  .00085465  00000+0  34621-2 0  9990
2 35622  86.1886 173.6497 0000950 310.6617  62.5088 15.24309876900779
IRIDIUM 33 DEB          
1 35625U 97051QX  26158.19250094  .00003287  00000+0  11537-2 0  9993
2 35625  86.1884 305.5816 0102770 350.7016 129.1405 14.31825019685640
IRIDIUM 33 DEB          
1 35628U 97051RA  26162.07255813  .00005969  00000+0  98155-3 0  9993
2 35628  86.3533 288.4405 0012978  76.7709 283.4953 14.70398443890945
IRIDIUM 33 DEB          
1 35631U 97051RD  26163.14893228  .00000709  00000+0  18615-3 0  9994
2 35631  86.3652 302.8401 0015173 231.4510 308.5685 14.47801554898213
IRIDIUM 33 DEB          
1 35680U 97051RJ  26160.65849522  .00002569  00000+0  10053-2 0  9992
2 35680  86.0960 302.1599 0150207  70.3077 308.0449 14.23139343632441
IRIDIUM 33 DEB          
1 35744U 97051RX  26161.49324994  .00004278  00000+0  65388-3 0  9998
2 35744  86.3281 244.0157 0017542 298.8992  61.0465 14.73474177899768
IRIDIUM 33 DEB          
1 35797U 97051SF  26162.96710802  .00011230  00000+0  12169-2 0  9990
2 35797  86.3343 246.2944 0009309 227.0834 132.9611 14.88087771900315
IRIDIUM 33 DEB          
1 35806U 97051SQ  26160.66743860  .00004282  00000+0  90186-3 0  9991
2 35806  86.3420 301.7055 0013300 172.2336 187.9083 14.59247438889322
IRIDIUM 33 DEB          
1 35809U 97051ST  26161.96735534  .00007326  00000+0  97205-3 0  9998
2 35809  86.3254 252.9619 0009788 351.5474   8.5581 14.79675651894694
IRIDIUM 33 DEB          
1 35846U 97051SW  26161.23317353  .00001309  00000+0  37821-3 0  9997
2 35846  86.3745 342.2124 0015962 305.3859  54.5850 14.43843533739188
IRIDIUM 33 DEB          
1 35848U 97051SY  26163.07133359  .00009376  00000+0  11469-2 0  9996
2 35848  86.3850 294.2441 0005370 288.6455  71.4184 14.83123089693742
IRIDIUM 33 DEB          
1 35850U 97051TA  26161.97976143  .00008477  00000+0  10343-2 0  9993
2 35850  86.3462 261.9049 0006377 287.1690  72.8835 14.83217706740259
IRIDIUM 33 DEB          
1 35915U 97051TY  26161.98329116  .00010014  00000+0  11467-2 0  9996
2 35915  86.3409 260.1954 0007833 281.8648  78.1697 14.85841922107583
IRIDIUM 33 DEB          
1 35918U 97051UB  26162.30678082  .00002505  00000+0  60409-3 0  9992
2 35918  86.4024 358.2178 0023510 288.1759 250.4013 14.52716664878276
IRIDIUM 33 DEB          
1 35929U 97051UN  26162.48370652  .00040224  00000+0  19872-2 0  9992
2 35929  86.3415 226.0586 0013845  88.0759 272.2068 15.17606493905074
IRIDIUM 33 DEB          
1 36011U 97051US  26157.21382911  .00001483  00000+0  44650-3 0  9998
2 36011  86.3394 320.0410 0018578  10.0193 163.8896 14.41897046670681
IRIDIUM 33 DEB          
1 36012U 97051UT  26158.96613493  .00003502  00000+0  12481-2 0  9994
2 36012  86.4390 235.8973 0220612  57.6754 304.5588 14.21267855680006
IRIDIUM 33 DEB          
1 36028U 97051VK  26160.92315217  .00023404  00000+0  16415-2 0  9997
2 36028  86.3235 221.7383 0017354 117.3716 242.9287 15.04947617898115
IRIDIUM 33 DEB          
1 36080U 97051VM  26157.10798166  .00002202  00000+0  59529-3 0  9996
2 36080  86.3103 291.5097 0015851 295.6937  64.2629 14.47346085499502
IRIDIUM 33 DEB          
1 36083U 97051VQ  26157.71597404  .00001599  00000+0  46173-3 0  9997
2 36083  86.3418 318.3694 0026361   9.5658 350.6039 14.43876596879886
IRIDIUM 33 DEB          
1 36390U 97051VU  26162.42631536  .00002995  00000+0  42961-3 0  9999
2 36390  86.2905 216.3866 0026216 260.0855  99.7405 14.75968019689252
IRIDIUM 33 DEB          
1 36483U 97051VZ  26160.76020892  .00001358  00000+0  37222-3 0  9990
2 36483  86.3791 335.8369 0007008 250.6760 109.3685 14.46461836677339
IRIDIUM 33 DEB          
1 36490U 97051WG  26163.07252132  .00010064  00000+0  13039-2 0  9992
2 36490  86.3610 288.3299 0004727 134.0982 226.0629 14.80729586891641
IRIDIUM 33 DEB          
1 36493U 97051WK  26163.07543351  .00005230  00000+0  91322-3 0  9992
2 36493  86.3540 290.9306 0012408  92.7052 267.5583 14.67737344771762
IRIDIUM 33 DEB          
1 36497U 97051WP  26161.75547606  .00005589  00000+0  10004-2 0  9990
2 36497  86.1549 169.7053 0043227 223.0980 136.6847 14.66083220682875
IRIDIUM 33 DEB          
1 37136U 97051XG  26151.57186540  .00002141  00000+0  82395-3 0  9990
2 37136  86.1698 262.7651 0077650 160.1333 200.2913 14.28277066669226
IRIDIUM 33 DEB          
1 37548U 97051XH  26162.16936912  .00002450  00000+0  59168-3 0  9995
2 37548  86.3508 324.7701 0022677 311.1589  48.7660 14.52639421681503
IRIDIUM 33 DEB          
1 37550U 97051XK  26162.16151961  .00005165  00000+0  85906-3 0  9996
2 37550  86.3745 303.7217 0003086 171.4516 188.6753 14.69931833889819
IRIDIUM 33 DEB          
1 37562U 97051XX  26161.73214259  .00003647  00000+0  78266-3 0  9995
2 37562  86.3734 325.0108 0022701 212.8502 162.1617 14.58248668889503
IRIDIUM 33 DEB          
1 37565U 97051YA  26162.10533848  .00002989  00000+0  72882-3 0  9994
2 37565  86.3401 290.9531 0014494 187.5466 172.5524 14.52349035684547
IRIDIUM 33 DEB          
1 38017U 97051YD  26161.52005787  .00005373  00000+0  12486-2 0  9991
2 38017  86.3311  87.6898 0074849 226.0950 133.4063 14.53065387640108
IRIDIUM 33 DEB          
1 38022U 97051YJ  26159.62689016  .00004048  00000+0  11983-2 0  9997
2 38022  86.2652 298.4458 0044401 178.2462 181.8902 14.42634180717578
IRIDIUM 33 DEB          
1 38028U 97051YQ  26161.61154105  .00001287  00000+0  34916-3 0  9995
2 38028  86.3237 282.0368 0025951 242.6144 117.2418 14.46721541680953
IRIDIUM 33 DEB          
1 38228U 97051ZC  26160.72977622  .00000666  00000+0  25790-3 0  9995
2 38228  86.2948 332.3719 0062699 336.0912  38.6743 14.27590870873356
IRIDIUM 33 DEB          
1 38241U 97051ZR  26163.06715934  .00002095  00000+0  47139-3 0  9995
2 38241  86.3210 270.5081 0005056 141.2812 218.8759 14.56026759628380
IRIDIUM 33 DEB          
1 38474U 97051AAB 26163.10218866  .00001628  00000+0  40031-3 0  9995
2 38474  86.3409 290.9704 0025326 194.5154 165.5327 14.51531932679483
IRIDIUM 33 DEB          
1 38477U 97051AAE 26155.96287521  .00003224  00000+0  24387-2 0  9996
2 38477  86.4105  41.0806 0399206  91.3480 273.3431 13.61980835570489
IRIDIUM 33 DEB          
1 39777U 97051AAJ 26163.08921262  .00008280  00000+0  16420-2 0  9995
2 39777  85.9589  86.6520 0054221 295.0585  64.5003 14.61190785628291
IRIDIUM 33 DEB          
1 39778U 97051AAK 26163.18903966  .00003475  00000+0  78938-3 0  9992
2 39778  86.3768 324.3734 0009107 124.8310 235.3756 14.55738747633314
IRIDIUM 33 DEB          
1 39781U 97051AAN 26161.80324953  .00010119  00000+0  36842-2 0  9996
2 39781  86.3798 183.5990 0172227  58.4983 115.1436 14.25134658106674
IRIDIUM 33 DEB          
1 40996U 97051ABJ 26163.07148160  .00043657  00000+0  25095-2 0  9992
2 40996  86.3473 275.5445 0005365 119.9186  58.3157 15.12290266652148
IRIDIUM 33 DEB          
1 40998U 97051ABL 26160.80509353  .00001369  00000+0  38091-3 0  9992
2 40998  86.3820 337.1397 0006902 187.0999 237.1219 14.45733225 92688
IRIDIUM 33 DEB          
1 46435U 97051ABN 26161.12153723  .00014751  00000+0  36949-2 0  9994
2 46435  86.2739 116.1819 0205328  47.5157 327.7811 14.39356759104922
IRIDIUM 33 DEB          
1 46734U 97051ABR 26163.11703970  .00002459  00000+0  72018-3 0  9992
2 46734  86.2611 283.1457 0041738  94.6573  78.7692 14.43073490656255
IRIDIUM 33 DEB          
1 46965U 97051ABX 26162.54901469  .00002497  00000+0  49674-3 0  9991
2 46965  86.3339 260.3987 0021136  74.7012 300.4507 14.61599856649083
IRIDIUM 33 DEB          
1 46972U 97051ACE 26159.74604375  .00001458  00000+0  36014-3 0  9993
2 46972  86.3895 322.7402 0007093 219.5382 201.9095 14.51464710641547
IRIDIUM 33 DEB          
1 46974U 97051ACG 26162.33856866  .00005444  00000+0  13862-2 0  9992
2 46974  86.3001  26.1414 0086803 308.1316  51.2085 14.48236128601192
